NORAD_CAT_ID,OBJECT_NAME,OBJECT_TYPE,EPOCH,MEAN_MOTION,ECCENTRICITY,INCLINATION,RA_OF_ASC_NODE,ARG_OF_PERICENTER,MEAN_ANOMALY,BSTAR,MEAN_MOTION_DOT,MEAN_MOTION_DDOT,TLE_LINE0,TLE_LINE1,TLE_LINE2,SEMIMAJOR_AXIS,PERIOD,APOGEE,PERIGEE,DECAYED
49138.0,STARLINK-3058,PAYLOAD,2022-05-28 06:00:02,14.98357193,0.0003321,69.9997,177.5434,268.99,101.4028,-0.0033047,-0.00039332,0.0,0 STARLINK-3058,1 49138U 21082J   22148.25002315 -.00039332  00000-0 -33047-2 0  9994,2 49138  69.9997 177.5434 0003321 268.9900 101.4028 14.98357193 39053,6950.109,96.105,574.2819999999998,569.6659999999998,0.0
49138.0,STARLINK-3058,PAYLOAD,2022-05-28 12:21:48,14.98333961,0.0003186,69.998,176.8741,269.3926,90.6868,0.00019302,2.211e-05,0.0,0 STARLINK-3058,1 49138U 21082J   22148.51514633  .00002211  00000-0  19302-3 0  9997,2 49138  69.9980 176.8741 0003186 269.3926  90.6868 14.98333961 39092,6950.181,96.107,574.26,569.831,0.0
49138.0,STARLINK-3058,PAYLOAD,2022-05-28 22:00:00,14.98308255,0.0003241,69.9989,175.8624,266.597,98.7466,0.0057826,0.00069555,0.0,0 STARLINK-3058,1 49138U 21082J   22148.91667824  .00069555  00000-0  57826-2 0  9998,2 49138  69.9989 175.8624 0003241 266.5970  98.7466 14.98308255 39158,6950.26,96.108,574.378,569.873,0.0
49138.0,STARLINK-3058,PAYLOAD,2022-05-29 14:00:01,14.98362802,0.0003223,69.9985,174.1813,273.0299,87.2961,-0.0042432,-0.00050404,0.0,0 STARLINK-3058,1 49138U 21082J   22149.58334491 -.00050404  00000-0 -42432-2 0  9995,2 49138  69.9985 174.1813 0003223 273.0299  87.2961 14.98362802 39255,6950.090999999999,96.105,574.196,569.716,0.0
49138.0,STARLINK-3058,PAYLOAD,2022-05-29 18:48:21,14.98343589,0.0003224,69.9988,173.6764,268.0347,92.0443,0.00019915,2.285e-05,0.0,0 STARLINK-3058,1 49138U 21082J   22149.78357655  .00002285  00000-0  19915-3 0  9997,2 49138  69.9988 173.6764 0003224 268.0347  92.0443 14.98343589 39289,6950.151,96.106,574.257,569.775,0.0
49138.0,STARLINK-3058,PAYLOAD,2022-05-30 06:00:00,14.98339109,0.0003183,69.9988,172.5003,268.2969,86.9995,-0.0026934,-0.00032092,0.0,0 STARLINK-3058,1 49138U 21082J   22150.25001157 -.00032092  00000-0 -26934-2 0  9993,2 49138  69.9988 172.5003 0003183 268.2969  86.9995 14.98339109 39343,6950.165,96.106,574.242,569.817,0.0
49138.0,STARLINK-3058,PAYLOAD,2022-05-30 14:00:01,14.9833128,0.0003195,69.9983,171.6597,272.0982,80.6733,-0.0010612,-0.00012733,0.0,0 STARLINK-3058,1 49138U 21082J   22150.58334491 -.00012733  00000-0 -10612-2 0  9995,2 49138  69.9983 171.6597 0003195 272.0982  80.6733 14.98331280  1305,6950.189,96.107,574.275,569.8330000000002,0.0
49138.0,STARLINK-3058,PAYLOAD,2022-05-30 22:00:00,14.98286781,0.0003196,69.9984,170.8192,265.2047,85.0564,0.0059459,0.00071502,0.0,0 STARLINK-3058,1 49138U 21082J   22150.91667824  .00071502  00000-0  59459-2 0  9990,2 49138  69.9984 170.8192 0003196 265.2047  85.0564 14.98286781 39447,6950.3269999999975,96.11,574.413,569.97,0.0
49138.0,STARLINK-3058,PAYLOAD,2022-05-31 06:00:02,14.98340598,0.0003237,69.9995,169.9787,267.9449,79.8391,-0.0026572,-0.00031665,0.0,0 STARLINK-3058,1 49138U 21082J   22151.25002315 -.00031665  00000-0 -26572-2 0  9994,2 49138  69.9995 169.9787 0003237 267.9449  79.8391 14.98340598  1309,6950.16,96.106,574.275,569.775,0.0
49138.0,STARLINK-3058,PAYLOAD,2022-05-31 14:00:01,14.98337092,0.0003253,69.9998,169.1382,271.4754,73.7248,-0.001533,-0.0001834,0.0,0 STARLINK-3058,1 49138U 21082J   22151.58334491 -.00018340  00000-0 -15330-2 0  9998,2 49138  69.9998 169.1382 0003253 271.4754  73.7248 14.98337092 39548,6950.170999999999,96.107,574.297,569.775,0.0
49138.0,STARLINK-3058,PAYLOAD,2022-05-31 22:00:00,14.98290515,0.0003264,70.0004,168.2977,264.9812,77.7119,0.0060522,0.00072802,0.0,0 STARLINK-3058,1 49138U 21082J   22151.91667824  .00072802  00000-0  60522-2 0  9998,2 49138  70.0004 168.2977 0003264 264.9812  77.7119 14.98290515  1305,6950.315,96.11,574.4490000000002,569.911,0.0
49138.0,STARLINK-3058,PAYLOAD,2022-06-01 14:00:01,14.98341355,0.0003268,70.0002,166.6169,271.2124,66.4234,-0.0020808,-0.00024841,0.0,0 STARLINK-3058,1 49138U 21082J   22152.58334491 -.00024841  00000-0 -20808-2 0  9998,2 49138  70.0002 166.6169 0003268 271.2124  66.4234 14.98341355 39694,6950.158,96.106,574.294,569.751,0.0
49138.0,STARLINK-3058,PAYLOAD,2022-06-01 20:00:01,14.98302542,0.000327,70.0006,165.9866,266.6821,339.0784,0.0034808,0.00041658,0.0,0 STARLINK-3058,1 49138U 21082J   22152.83334491  .00041658  00000-0  34808-2 0  9994,2 49138  70.0006 165.9866 0003270 266.6821 339.0784 14.98302542  1300,6950.278,96.109,574.4159999999998,569.87,0.0
49138.0,STARLINK-3058,PAYLOAD,2022-06-03 02:57:06,14.98328828,0.000317,69.9994,162.7353,267.9702,92.1094,6.6059e-05,6.95e-06,0.0,0 STARLINK-3058,1 49138U 21082J   22154.12298692  .00000695  00000-0  66059-4 0  9991,2 49138  69.9994 162.7353 0003170 267.9702  92.1094 14.98328828 39936,6950.196999999999,96.107,574.265,569.8580000000002,0.0
49138.0,STARLINK-3058,PAYLOAD,2022-06-03 10:57:46,14.98329401,0.0003191,69.9994,161.8936,268.3025,91.7769,6.1159e-05,6.37e-06,0.0,0 STARLINK-3058,1 49138U 21082J   22154.45678697  .00000637  00000-0  61159-4 0  9996,2 49138  69.9994 161.8936 0003191 268.3025  91.7769 14.98329401 39986,6950.195,96.107,574.278,569.842,0.0
49138.0,STARLINK-3058,PAYLOAD,2022-06-04 04:35:15,14.98331058,0.0003181,69.9994,160.042,268.7067,91.3728,5.9756e-05,6.2e-06,0.0,0 STARLINK-3058,1 49138U 21082J   22155.19114606  .00000620  00000-0  59756-4 0  9995,2 49138  69.9994 160.0420 0003181 268.7067  91.3728 14.98331058 40090,6950.19,96.107,574.265,569.844,0.0
49138.0,STARLINK-3058,PAYLOAD,2022-06-04 09:23:39,14.98331131,0.0003162,69.9995,159.5373,267.9165,92.1632,5.8375e-05,6.04e-06,0.0,0 STARLINK-3058,1 49138U 21082J   22155.39142591  .00000604  00000-0  58375-4 0  9999,2 49138  69.9995 159.5373 0003162 267.9165  92.1632 14.98331131 40129,6950.189,96.107,574.252,569.857,0.0
49138.0,STARLINK-3058,PAYLOAD,2022-06-05 22:00:00,14.98311152,0.0003177,70.0013,155.692,264.1621,40.7933,0.0044217,0.00053042,0.0,0 STARLINK-3058,1 49138U 21082J   22156.91667824  .00053042  00000-0  44217-2 0  9991,2 49138  70.0013 155.6920 0003177 264.1621  40.7933 14.98311152 40348,6950.251,96.108,574.3240000000002,569.908,0.0
49138.0,STARLINK-3058,PAYLOAD,2022-06-06 14:00:01,14.98360442,0.0003214,70.0012,154.011,269.8174,30.1092,-0.0041909,-0.00049785,0.0,0 STARLINK-3058,1 49138U 21082J   22157.58334491 -.00049785  00000-0 -41909-2 0  9992,2 49138  70.0012 154.0110 0003214 269.8174  30.1092 14.98360442 40444,6950.099,96.105,574.198,569.73,0.0
49138.0,STARLINK-3058,PAYLOAD,2022-06-06 20:00:01,14.98304146,0.0003251,70.0014,153.3806,265.04,303.0235,0.0053422,0.00064194,0.0,0 STARLINK-3058,1 49138U 21082J   22157.83334491  .00064194  00000-0  53422-2 0  9992,2 49138  70.0014 153.3806 0003251 265.0400 303.0235 14.98304146  1303,6950.273,96.109,574.3969999999998,569.878,0.0
49138.0,STARLINK-3058,PAYLOAD,2022-06-07 06:17:24,14.98337764,0.0003186,69.9994,152.2997,267.2602,92.8192,5.8247e-05,6.02e-06,0.0,0 STARLINK-3058,1 49138U 21082J   22158.26209412  .00000602  00000-0  58247-4 0  9990,2 49138  69.9994 152.2997 0003186 267.2602  92.8192 14.98337764 40558,6950.169,96.107,574.248,569.82,0.0
49138.0,STARLINK-3058,PAYLOAD,2022-06-07 09:29:40,14.98338213,0.0003179,69.9994,151.963,267.2918,92.7878,6.18e-05,6.45e-06,0.0,0 STARLINK-3058,1 49138U 21082J   22158.39561310  .00000645  00000-0  61800-4 0  9998,2 49138  69.9994 151.9630 0003179 267.2918  92.7878 14.98338213 40572,6950.167,96.106,574.242,569.823,0.0
49138.0,STARLINK-3058,PAYLOAD,2022-06-07 17:30:21,14.98339393,0.0003159,69.9994,151.1214,267.28,92.7997,6.9473e-05,7.36e-06,0.0,0 STARLINK-3058,1 49138U 21082J   22158.72941072  .00000736  00000-0  69473-4 0  9997,2 49138  69.9994 151.1214 0003159 267.2800  92.7997 14.98339393 40628,6950.1640000000025,96.106,574.224,569.8330000000002,0.0
49138.0,STARLINK-3058,PAYLOAD,2022-06-08 09:31:41,14.98339825,0.0003174,69.9992,149.4382,267.3132,92.7664,5.9771e-05,6.2e-06,0.0,0 STARLINK-3058,1 49138U 21082J   22159.39700662  .00000620  00000-0  59771-4 0  9991,2 49138  69.9992 149.4382 0003174 267.3132  92.7664 14.98339825 40720,6950.163000000001,96.106,574.2330000000002,569.822,0.0
49138.0,STARLINK-3058,PAYLOAD,2022-06-08 22:20:46,14.98326579,0.0003097,69.9992,148.0917,267.4163,92.6642,-8.808299999999999e-05,-1.144e-05,0.0,0 STARLINK-3058,1 49138U 21082J   22159.93109802 -.00001144  00000-0 -88083-4 0  9992,2 49138  69.9992 148.0917 0003097 267.4163  92.6642 14.98326579 40804,6950.203,96.107,574.221,569.9159999999998,0.0
49138.0,STARLINK-3058,PAYLOAD,2022-06-09 09:33:43,14.98327165,0.000308,69.9992,146.9134,267.4798,92.6009,-7.3373e-05,-9.68e-06,0.0,0 STARLINK-3058,1 49138U 21082J   22160.39841802 -.00000968  00000-0 -73373-4 0  9996,2 49138  69.9992 146.9134 0003080 267.4798  92.6009 14.98327165 40874,6950.2019999999975,96.107,574.207,569.9259999999998,0.0
49138.0,STARLINK-3058,PAYLOAD,2022-06-09 15:58:15,14.98329556,0.0002898,69.9996,146.2407,265.5441,94.5387,-0.00014562,-1.83e-05,0.0,0 STARLINK-3058,1 49138U 21082J   22160.66545869 -.00001830  00000-0 -14562-3 0  9993,2 49138  69.9996 146.2407 0002898 265.5441  94.5387 14.98329556 40915,6950.194,96.107,574.073,570.045,0.0
49138.0,STARLINK-3058,PAYLOAD,2022-06-09 22:22:47,14.98329959,0.0002992,69.9996,145.5667,266.8354,93.2463,-5.5645e-05,-7.57e-06,0.0,0 STARLINK-3058,1 49138U 21082J   22160.93249675 -.00000757  00000-0 -55645-4 0  9994,2 49138  69.9996 145.5667 0002992 266.8354  93.2463 14.98329959 40959,6950.193,96.107,574.138,569.979,0.0
49138.0,STARLINK-3058,PAYLOAD,2022-06-10 09:35:44,14.98328407,0.0002892,69.9998,144.3885,264.7214,95.3615,-3.6685e-05,-5.31e-06,0.0,0 STARLINK-3058,1 49138U 21082J   22161.39981798 -.00000531  00000-0 -36685-4 0  9997,2 49138  69.9998 144.3885 0002892 264.7214  95.3615 14.98328407 41029,6950.198,96.107,574.073,570.053,0.0
